IRIDIUM 116             
1 43072U 17083C   24225.94878256 -.00000186  00000+0 -73381-4 0  9991
2 43072  86.3931 243.3291 0002026  89.4950 270.6478 14.34215105347674
IRIDIUM 130             
1 43073U 17083D   24225.77753879  .00000057  00000+0  13401-4 0  9998
2 43073  86.3938 243.6110 0002215  87.6877 272.4572 14.34216476347591
IRIDIUM 151             
1 43074U 17083E   24226.51961983  .00000059  00000+0  13967-4 0  9998
2 43074  86.3929 243.1329 0002325  96.5202 263.6258 14.34218131347720
IRIDIUM 134             
1 43075U 17083F   24225.92975854 -.00000265  00000+0 -10172-3 0  9990
2 43075  86.3933 243.3786 0002055  85.7180 274.4250 14.34213892347608
IRIDIUM 141             
1 43077U 17083H   24226.56401695  .00000212  00000+0  68752-4 0  9998
2 43077  86.3928 243.0613 0002467  89.9885 270.1594 14.34218846347760
IRIDIUM 153             
1 43078U 17083J   24226.37665893  .00000191  00000+0  61227-4 0  9996
2 43078  86.3978 211.6217 0002894  89.5885 270.5643 14.34219056348840
